IRIDIUM 26              
1 24903U 97043A   25046.82128013  .00000861  00000+0  28419-3 0  9994
2 24903  86.4024 161.5726 0002280  99.5587 260.5868 14.36974654439311
IRIDIUM 22              
1 24907U 97043E   25046.86064722  .00000843  00000+0  28480-3 0  9996
2 24907  86.4029 164.9852 0002081  94.5583 265.5851 14.35807532439368
DUMMY MASS 1            
1 24925U 97048A   25046.87703871  .00001054  00000+0  11528-3 0  9997
2 24925  86.3387 191.3616 0005604 197.7593 162.3437 14.86796023487104
DUMMY MASS 2            
1 24926U 97048B   25046.88633055  .00001041  00000+0  11450-3 0  9995
2 24926  86.3385 192.9407 0005957 213.5600 146.5248 14.86549234486883
IRIDIUM 29              
1 24944U 97051A   25046.92554152  .00001015  00000+0  34112-3 0  9995
2 24944  86.3996 194.6988 0001875  89.7532 270.3880 14.36281281435866
IRIDIUM 33              
1 24946U 97051C   25047.12497980  .00000693  00000+0  23773-3 0  9997
2 24946  86.3914 193.8666 0009801 109.4891 250.7365 14.34764723435390
IRIDIUM 28              
1 24948U 97051E   25046.90783055  .00000928  00000+0  30539-3 0  9994
2 24948  86.4007 192.2936 0002434  98.5459 261.6014 14.37216360436421
IRIDIUM 36              
1 24967U 97056C   25046.88907958  .00001005  00000+0  33008-3 0  9998
2 24967  86.3948 223.9007 0002262  87.9216 272.2240 14.37412933434799
